CCSDS_OMM_VERS = 2.0
CREATION_DATE  = 
ORIGINATOR     = 

OBJECT_NAME    = STARLINK-35474
OBJECT_ID      = 2025-259R
CENTER_NAME    = EARTH
REF_FRAME      = TEME
TIME_SYSTEM    = UTC
MEAN_ELEMENT_THEORY = SGP/SGP4

EPOCH          = 2025-11-20T20:00:03.000384
MEAN_MOTION    = 15.86309420
ECCENTRICITY   = .0001539
INCLINATION    = 42.9979
RA_OF_ASC_NODE = 177.3860
ARG_OF_PERICENTER = 276.4487
MEAN_ANOMALY   = 250.1885

EPHEMERIS_TYPE = 0
CLASSIFICATION_TYPE = U
NORAD_CAT_ID   = 66437
ELEMENT_SET_NO = 999
REV_AT_EPOCH   = 276
BSTAR          = -.71833E-2
MEAN_MOTION_DOT = -.1624954E-1
MEAN_MOTION_DDOT = 0

CCSDS_OMM_VERS = 2.0
CREATION_DATE  = 
ORIGINATOR     = 

OBJECT_NAME    = STARLINK-34681
OBJECT_ID      = 2025-259S
CENTER_NAME    = EARTH
REF_FRAME      = TEME
TIME_SYSTEM    = UTC
MEAN_ELEMENT_THEORY = SGP/SGP4

EPOCH          = 2025-11-20T20:00:03.000384
MEAN_MOTION    = 15.86321491
ECCENTRICITY   = .0001516
INCLINATION    = 42.9981
RA_OF_ASC_NODE = 177.3810
ARG_OF_PERICENTER = 276.7651
MEAN_ANOMALY   = 251.9633

EPHEMERIS_TYPE = 0
CLASSIFICATION_TYPE = U
NORAD_CAT_ID   = 66438
ELEMENT_SET_NO = 999
REV_AT_EPOCH   = 265
BSTAR          = -.71972E-2
MEAN_MOTION_DOT = -.1628522E-1
MEAN_MOTION_DDOT = 0

CCSDS_OMM_VERS = 2.0
CREATION_DATE  = 
ORIGINATOR     = 

OBJECT_NAME    = STARLINK-35327
OBJECT_ID      = 2025-259T
CENTER_NAME    = EARTH
REF_FRAME      = TEME
TIME_SYSTEM    = UTC
MEAN_ELEMENT_THEORY = SGP/SGP4

EPOCH          = 2025-11-20T20:00:03.000384
MEAN_MOTION    = 15.86295588
ECCENTRICITY   = .0001549
INCLINATION    = 42.9989
RA_OF_ASC_NODE = 177.3988
ARG_OF_PERICENTER = 277.1714
MEAN_ANOMALY   = 244.9002

EPHEMERIS_TYPE = 0
CLASSIFICATION_TYPE = U
NORAD_CAT_ID   = 66439
ELEMENT_SET_NO = 999
REV_AT_EPOCH   = 276
BSTAR          = -.70996E-2
MEAN_MOTION_DOT = -.1607458E-1
MEAN_MOTION_DDOT = 0

CCSDS_OMM_VERS = 2.0
CREATION_DATE  = 
ORIGINATOR     = 

OBJECT_NAME    = STARLINK-35405
OBJECT_ID      = 2025-259U
CENTER_NAME    = EARTH
REF_FRAME      = TEME
TIME_SYSTEM    = UTC
MEAN_ELEMENT_THEORY = SGP/SGP4

EPOCH          = 2025-11-20T20:00:03.000384
MEAN_MOTION    = 15.86337731
ECCENTRICITY   = .000155
INCLINATION    = 42.9984
RA_OF_ASC_NODE = 177.3760
ARG_OF_PERICENTER = 275.8276
MEAN_ANOMALY   = 254.9800

EPHEMERIS_TYPE = 0
CLASSIFICATION_TYPE = U
NORAD_CAT_ID   = 66440
ELEMENT_SET_NO = 999
REV_AT_EPOCH   = 276
BSTAR          = -.72258E-2
MEAN_MOTION_DOT = -.1635336E-1
MEAN_MOTION_DDOT = 0

CCSDS_OMM_VERS = 2.0
CREATION_DATE  = 
ORIGINATOR     = 

OBJECT_NAME    = STARLINK-35426
OBJECT_ID      = 2025-259V
CENTER_NAME    = EARTH
REF_FRAME      = TEME
TIME_SYSTEM    = UTC
MEAN_ELEMENT_THEORY = SGP/SGP4

EPOCH          = 2025-11-20T20:00:03.000384
MEAN_MOTION    = 15.86346129
ECCENTRICITY   = .0001537
INCLINATION    = 42.9980
RA_OF_ASC_NODE = 177.3699
ARG_OF_PERICENTER = 275.7513
MEAN_ANOMALY   = 257.3144

EPHEMERIS_TYPE = 0
CLASSIFICATION_TYPE = U
NORAD_CAT_ID   = 66441
ELEMENT_SET_NO = 999
REV_AT_EPOCH   = 276
BSTAR          = -.72678E-2
MEAN_MOTION_DOT = -.164418E-1
MEAN_MOTION_DDOT = 0

CCSDS_OMM_VERS = 2.0
CREATION_DATE  = 
ORIGINATOR     = 

OBJECT_NAME    = STARLINK-34724
OBJECT_ID      = 2025-259W
CENTER_NAME    = EARTH
REF_FRAME      = TEME
TIME_SYSTEM    = UTC
MEAN_ELEMENT_THEORY = SGP/SGP4

EPOCH          = 2025-11-20T20:00:03.000384
MEAN_MOTION    = 15.86355824
ECCENTRICITY   = .0001546
INCLINATION    = 42.9983
RA_OF_ASC_NODE = 177.3647
ARG_OF_PERICENTER = 274.6164
MEAN_ANOMALY   = 260.6471

EPHEMERIS_TYPE = 0
CLASSIFICATION_TYPE = U
NORAD_CAT_ID   = 66442
ELEMENT_SET_NO = 999
REV_AT_EPOCH   = 276
BSTAR          = -.73153E-2
MEAN_MOTION_DOT = -.1654212E-1
MEAN_MOTION_DDOT = 0

CCSDS_OMM_VERS = 2.0
CREATION_DATE  = 
ORIGINATOR     = 

OBJECT_NAME    = STARLINK-35219
OBJECT_ID      = 2025-259X
CENTER_NAME    = EARTH
REF_FRAME      = TEME
TIME_SYSTEM    = UTC
MEAN_ELEMENT_THEORY = SGP/SGP4

EPOCH          = 2025-11-20T20:00:03.000384
MEAN_MOTION    = 15.86381727
ECCENTRICITY   = .0001537
INCLINATION    = 42.9983
RA_OF_ASC_NODE = 177.3599
ARG_OF_PERICENTER = 273.7911
MEAN_ANOMALY   = 263.3786

EPHEMERIS_TYPE = 0
CLASSIFICATION_TYPE = U
NORAD_CAT_ID   = 66443
ELEMENT_SET_NO = 999
REV_AT_EPOCH   = 265
BSTAR          = -.73431E-2
MEAN_MOTION_DOT = -.1661515E-1
MEAN_MOTION_DDOT = 0

CCSDS_OMM_VERS = 2.0
CREATION_DATE  = 
ORIGINATOR     = 

OBJECT_NAME    = STARLINK-35360
OBJECT_ID      = 2025-259Y
CENTER_NAME    = EARTH
REF_FRAME      = TEME
TIME_SYSTEM    = UTC
MEAN_ELEMENT_THEORY = SGP/SGP4

EPOCH          = 2025-11-20T20:00:03.000384
MEAN_MOTION    = 15.86399269
ECCENTRICITY   = .0001099
INCLINATION    = 42.9982
RA_OF_ASC_NODE = 177.3425
ARG_OF_PERICENTER = 275.4342
MEAN_ANOMALY   = 268.3225

EPHEMERIS_TYPE = 0
CLASSIFICATION_TYPE = U
NORAD_CAT_ID   = 66444
ELEMENT_SET_NO = 999
REV_AT_EPOCH   = 276
BSTAR          = -.7348E-2
MEAN_MOTION_DOT = -.1663349E-1
MEAN_MOTION_DDOT = 0

CCSDS_OMM_VERS = 2.0
CREATION_DATE  = 
ORIGINATOR     = 

OBJECT_NAME    = STARLINK-34698
OBJECT_ID      = 2025-259Z
CENTER_NAME    = EARTH
REF_FRAME      = TEME
TIME_SYSTEM    = UTC
MEAN_ELEMENT_THEORY = SGP/SGP4

EPOCH          = 2025-11-20T20:00:03.000384
MEAN_MOTION    = 15.86377319
ECCENTRICITY   = .0001499
INCLINATION    = 42.9979
RA_OF_ASC_NODE = 177.3532
ARG_OF_PERICENTER = 273.2385
MEAN_ANOMALY   = 266.3807

EPHEMERIS_TYPE = 0
CLASSIFICATION_TYPE = U
NORAD_CAT_ID   = 66445
ELEMENT_SET_NO = 999
REV_AT_EPOCH   = 265
BSTAR          = -.73542E-2
MEAN_MOTION_DOT = -.1663359E-1
MEAN_MOTION_DDOT = 0

CCSDS_OMM_VERS = 2.0
CREATION_DATE  = 
ORIGINATOR     = 

OBJECT_NAME    = STARLINK-34986
OBJECT_ID      = 2025-259AA
CENTER_NAME    = EARTH
REF_FRAME      = TEME
TIME_SYSTEM    = UTC
MEAN_ELEMENT_THEORY = SGP/SGP4

EPOCH          = 2025-11-20T20:00:03.000384
MEAN_MOTION    = 15.86387220
ECCENTRICITY   = .0001455
INCLINATION    = 42.9978
RA_OF_ASC_NODE = 177.3473
ARG_OF_PERICENTER = 274.0062
MEAN_ANOMALY   = 267.8312

EPHEMERIS_TYPE = 0
CLASSIFICATION_TYPE = U
NORAD_CAT_ID   = 66446
ELEMENT_SET_NO = 999
REV_AT_EPOCH   = 276
BSTAR          = -.7389E-2
MEAN_MOTION_DOT = -.1670842E-1
MEAN_MOTION_DDOT = 0

CCSDS_OMM_VERS = 2.0
CREATION_DATE  = 
ORIGINATOR     = 

OBJECT_NAME    = STARLINK-34851
OBJECT_ID      = 2025-259AB
CENTER_NAME    = EARTH
REF_FRAME      = TEME
TIME_SYSTEM    = UTC
MEAN_ELEMENT_THEORY = SGP/SGP4

EPOCH          = 2025-11-20T20:00:03.000384
MEAN_MOTION    = 15.86418612
ECCENTRICITY   = .0001467
INCLINATION    = 42.9979
RA_OF_ASC_NODE = 177.3365
ARG_OF_PERICENTER = 272.5787
MEAN_ANOMALY   = 273.4830

EPHEMERIS_TYPE = 0
CLASSIFICATION_TYPE = U
NORAD_CAT_ID   = 66447
ELEMENT_SET_NO = 999
REV_AT_EPOCH   = 265
BSTAR          = -.74705E-2
MEAN_MOTION_DOT = -.1689085E-1
MEAN_MOTION_DDOT = 0

CCSDS_OMM_VERS = 2.0
CREATION_DATE  = 
ORIGINATOR     = 

OBJECT_NAME    = STARLINK-35355
OBJECT_ID      = 2025-259AC
CENTER_NAME    = EARTH
REF_FRAME      = TEME
TIME_SYSTEM    = UTC
MEAN_ELEMENT_THEORY = SGP/SGP4

EPOCH          = 2025-11-20T20:00:03.000384
MEAN_MOTION    = 15.86433591
ECCENTRICITY   = .0001455
INCLINATION    = 42.9983
RA_OF_ASC_NODE = 177.3317
ARG_OF_PERICENTER = 270.3681
MEAN_ANOMALY   = 277.7685

EPHEMERIS_TYPE = 0
CLASSIFICATION_TYPE = U
NORAD_CAT_ID   = 66448
ELEMENT_SET_NO = 999
REV_AT_EPOCH   = 276
BSTAR          = -.74617E-2
MEAN_MOTION_DOT = -.1688436E-1
MEAN_MOTION_DDOT = 0

