STARLINK-35474          
1 66437U 25259R   25324.83336806 -.01624954  00000+0 -71833-2 0  9998
2 66437  42.9979 177.3860 0001539 276.4487 250.1885 15.86309420  2768
STARLINK-34681          
1 66438U 25259S   25324.83336806 -.01628522  00000+0 -71972-2 0  9998
2 66438  42.9981 177.3810 0001516 276.7651 251.9633 15.86321491  2658
STARLINK-35327          
1 66439U 25259T   25324.83336806 -.01607458  00000+0 -70996-2 0  9999
2 66439  42.9989 177.3988 0001549 277.1714 244.9002 15.86295588  2765
STARLINK-35405          
1 66440U 25259U   25324.83336806 -.01635336  00000+0 -72258-2 0  9990
2 66440  42.9984 177.3760 0001550 275.8276 254.9800 15.86337731  2764
STARLINK-35426          
1 66441U 25259V   25324.83336806 -.01644180  00000+0 -72678-2 0  9994
2 66441  42.9980 177.3699 0001537 275.7513 257.3144 15.86346129  2769
STARLINK-34724          
1 66442U 25259W   25324.83336806 -.01654212  00000+0 -73153-2 0  9991
2 66442  42.9983 177.3647 0001546 274.6164 260.6471 15.86355824  2768
STARLINK-35219          
1 66443U 25259X   25324.83336806 -.01661515  00000+0 -73431-2 0  9995
2 66443  42.9983 177.3599 0001537 273.7911 263.3786 15.86381727  2653
STARLINK-35360          
1 66444U 25259Y   25324.83336806 -.01663349  00000+0 -73480-2 0  9997
2 66444  42.9982 177.3425 0001099 275.4342 268.3225 15.86399269  2766
STARLINK-34698          
1 66445U 25259Z   25324.83336806 -.01663359  00000+0 -73542-2 0  9998
2 66445  42.9979 177.3532 0001499 273.2385 266.3807 15.86377319  2653
STARLINK-34986          
1 66446U 25259AA  25324.83336806 -.01670842  00000+0 -73890-2 0  9990
2 66446  42.9978 177.3473 0001455 274.0062 267.8312 15.86387220  2761
STARLINK-34851          
1 66447U 25259AB  25324.83336806 -.01689085  00000+0 -74705-2 0  9996
2 66447  42.9979 177.3365 0001467 272.5787 273.4830 15.86418612  2659
STARLINK-35355          
1 66448U 25259AC  25324.83336806 -.01688436  00000+0 -74617-2 0  9998
2 66448  42.9983 177.3317 0001455 270.3681 277.7685 15.86433591  2768
